
# Worst residual: 1.77 km
# MJD 60142.000000 (2023 Jul 17  0:00)
1965-058B = NORAD 01459 = Vela 3B
1 01459U 65058B   23198.49919926  .00000000  00000-0  00000-0 0 18153
2 01459 040.5251 025.9616 4529368 045.1537 200.3169 00.21434794    04

# Worst residual: 8.18 km
# MJD 60143.000000 (2023 Jul 18  0:00)
1965-058B = NORAD 01459 = Vela 3B
1 01459U 65058B   23199.49919926  .00000000  00000-0  00000-0 0 18154
2 01459 040.5282 025.9508 4528621 045.2795 277.2511 00.21451659    09

# Worst residual: 14.08 km
# MJD 60144.000000 (2023 Jul 19  0:00)
1965-058B = NORAD 01459 = Vela 3B
1 01459U 65058B   23200.49919926  .00000000  00000-0  00000-0 0 18157
2 01459 040.5395 025.9298 4526664 045.3430 354.3681 00.21457385    09

# Worst residual: 12.54 km
# MJD 60145.000000 (2023 Jul 20  0:00)
1965-058B = NORAD 01459 = Vela 3B
1 01459U 65058B   23201.49919926  .00000000  00000-0  00000-0 0 18158
2 01459 040.5427 025.9378 4533570 045.4698 071.3295 00.21396152    06

# Worst residual: 10.65 km
# MJD 60146.000000 (2023 Jul 21  0:00)
1965-058B = NORAD 01459 = Vela 3B
1 01459U 65058B   23202.49919926  .00000000  00000-0  00000-0 0 18159
2 01459 040.5462 025.9246 4530365 045.2936 148.8198 00.21445932    04

# Worst residual: 6.54 km
# MJD 60147.000000 (2023 Jul 22  0:00)
1965-058B = NORAD 01459 = Vela 3B
1 01459U 65058B   23203.49919926  .00000000  00000-0  00000-0 0 18150
2 01459 040.5436 025.9021 4525172 045.1964 226.2627 00.21433141    03

# Worst residual: 7.50 km
# MJD 60148.000000 (2023 Jul 23  0:00)
1965-058B = NORAD 01459 = Vela 3B
1 01459U 65058B   23204.49919926  .00000000  00000-0  00000-0 0 18151
2 01459 040.5451 025.8810 4525196 045.1017 303.5218 00.21397889    03

# Worst residual: 9.76 km
# MJD 60149.000000 (2023 Jul 24  0:00)
1965-058B = NORAD 01459 = Vela 3B
1 01459U 65058B   23205.49919926  .00000000  00000-0  00000-0 0 18152
2 01459 040.5438 025.8696 4525771 045.2776 020.4762 00.21419897    05

# Worst residual: 10.96 km
# MJD 60150.000000 (2023 Jul 25  0:00)
1965-058B = NORAD 01459 = Vela 3B
1 01459U 65058B   23206.49919926  .00000000  00000-0  00000-0 0 18153
2 01459 040.5548 025.8535 4524418 045.4093 097.4202 00.21404864    01

# Worst residual: 16.85 km
# MJD 60151.000000 (2023 Jul 26  0:00)
1965-058B = NORAD 01459 = Vela 3B
1 01459U 65058B   23207.49919926  .00000000  00000-0  00000-0 0 18154
2 01459 040.5896 025.8630 4543092 045.4844 174.1769 00.21425300    05

# Worst residual: 6.65 km
# MJD 60152.000000 (2023 Jul 27  0:00)
1965-058B = NORAD 01459 = Vela 3B
1 01459U 65058B   23208.49919926  .00000000  00000-0  00000-0 0 18155
2 01459 040.6000 025.8671 4563247 045.5817 251.2633 00.21470238    00

# Worst residual: 37.93 km
# MJD 60153.000000 (2023 Jul 28  0:00)
1965-058B = NORAD 01459 = Vela 3B
1 01459U 65058B   23209.49919926  .00000000  00000-0  00000-0 0 18156
2 01459 040.6046 025.8529 4581403 045.5098 328.7635 00.21411416    02

# Worst residual: 41.30 km
# MJD 60154.000000 (2023 Jul 29  0:00)
1965-058B = NORAD 01459 = Vela 3B
1 01459U 65058B   23210.49919926  .00000000  00000-0  00000-0 0 18158
2 01459 040.6143 025.8601 4586345 045.8645 045.6120 00.21364531    01

# Worst residual: 16.85 km
# MJD 60155.000000 (2023 Jul 30  0:00)
1965-058B = NORAD 01459 = Vela 3B
1 01459U 65058B   23211.49919926  .00000000  00000-0  00000-0 0 18159
2 01459 040.6050 025.8492 4564097 045.6572 123.3119 00.21464227    08

# Worst residual: 13.83 km
# MJD 60156.000000 (2023 Jul 31  0:00)
1965-058B = NORAD 01459 = Vela 3B
1 01459U 65058B   23212.49919926  .00000000  00000-0  00000-0 0 18150
2 01459 040.5822 025.8026 4546163 045.6507 200.6867 00.21435756    03

# Worst residual: 26.86 km
# MJD 60157.000000 (2023 Aug  1  0:00)
1965-058B = NORAD 01459 = Vela 3B
1 01459U 65058B   23213.49919926  .00000000  00000-0  00000-0 0 18151
2 01459 040.5584 025.6693 4519591 045.8435 277.3541 00.21415725    07

# Worst residual: 17.81 km
# MJD 60158.000000 (2023 Aug  2  0:00)
1965-058B = NORAD 01459 = Vela 3B
1 01459U 65058B   23214.49919926  .00000000  00000-0  00000-0 0 18152
2 01459 040.5815 025.6025 4497861 046.0203 354.1861 00.21499837    09

# Worst residual: 5.11 km
# MJD 60159.000000 (2023 Aug  3  0:00)
1965-058B = NORAD 01459 = Vela 3B
1 01459U 65058B   23215.49919926  .00000000  00000-0  00000-0 0 18153
2 01459 040.5830 025.6124 4516156 046.0615 071.1698 00.21400599    03

# Worst residual: 6.26 km
# MJD 60160.000000 (2023 Aug  4  0:00)
1965-058B = NORAD 01459 = Vela 3B
1 01459U 65058B   23216.49919926  .00000000  00000-0  00000-0 0 18154
2 01459 040.5909 025.6022 4520539 046.0278 148.2554 00.21417831    06

# Worst residual: 8.15 km
# MJD 60161.000000 (2023 Aug  5  0:00)
1965-058B = NORAD 01459 = Vela 3B
1 01459U 65058B   23217.49919926  .00000000  00000-0  00000-0 0 18155
2 01459 040.5984 025.5973 4526826 045.9683 225.5339 00.21429929    07

# Worst residual: 11.90 km
# MJD 60162.000000 (2023 Aug  6  0:00)
1965-058B = NORAD 01459 = Vela 3B
1 01459U 65058B   23218.49919926  .00000000  00000-0  00000-0 0 18156
2 01459 040.6017 025.5916 4535841 045.8803 302.8726 00.21401049    04

# Worst residual: 12.58 km
# MJD 60163.000000 (2023 Aug  7  0:00)
1965-058B = NORAD 01459 = Vela 3B
1 01459U 65058B   23219.49919926  .00000000  00000-0  00000-0 0 18157
2 01459 040.5990 025.5791 4538414 046.0409 019.8467 00.21413167    09

# Worst residual: 1.27 km
# MJD 60164.000000 (2023 Aug  8  0:00)
1965-058B = NORAD 01459 = Vela 3B
1 01459U 65058B   23220.49919926  .00000000  00000-0  00000-0 0 18159
2 01459 040.5987 025.5670 4532118 046.0905 096.9752 00.21433272    09

# Worst residual: 0.82 km
# MJD 60165.000000 (2023 Aug  9  0:00)
1965-058B = NORAD 01459 = Vela 3B
1 01459U 65058B   23221.49919926  .00000000  00000-0  00000-0 0 18150
2 01459 040.5992 025.5526 4532639 046.1231 174.0760 00.21435071    02

# Worst residual: 1.33 km
# MJD 60166.000000 (2023 Aug 10  0:00)
1965-058B = NORAD 01459 = Vela 3B
1 01459U 65058B   23222.49919926  .00000000  00000-0  00000-0 0 18151
2 01459 040.6023 025.5414 4530793 046.1612 251.1465 00.21431104    08

# Worst residual: 26.64 km
# MJD 60167.000000 (2023 Aug 11  0:00)
1965-058B = NORAD 01459 = Vela 3B
1 01459U 65058B   23223.49919926  .00000000  00000-0  00000-0 0 18152
2 01459 040.6073 025.5242 4538120 046.1520 328.3357 00.21401983    01

# Worst residual: 33.64 km
# MJD 60168.000000 (2023 Aug 12  0:00)
1965-058B = NORAD 01459 = Vela 3B
1 01459U 65058B   23224.49919926  .00000000  00000-0  00000-0 0 18153
2 01459 040.6185 025.5334 4547262 046.4586 045.1134 00.21332848    09

# Worst residual: 12.30 km
# MJD 60169.000000 (2023 Aug 13  0:00)
1965-058B = NORAD 01459 = Vela 3B
1 01459U 65058B   23225.49919926  .00000000  00000-0  00000-0 0 18154
2 01459 040.6099 025.5228 4528474 046.3083 122.5236 00.21411376    07
